{"type": "FeatureCollection", "features": [ {"type": "Feature", "properties": {"norad_id": 37216, "name": "COSMO-SKYMED 4", "group": "resource", "lat": -13.895651221282144, "lon": 177.04165913117578, "alt_km": 627.2652330980291, "timestamp": "2025-12-19T20:42:59.737944+00:00", "meta": {"OBJECT_NAME": "COSMO-SKYMED 4", "OBJECT_ID": "2010-060A", "EPOCH": "2025-12-19T06:11:50.745408", "MEAN_MOTION": 14.82150805, "ECCENTRICITY": 0.0001383, "INCLINATION": 97.8798, "RA_OF_ASC_NODE": 174.4826, "ARG_OF_PERICENTER": 82.9242, "MEAN_ANOMALY": 277.2128, "EPHEMERIS_TYPE": 0, "CLASSIFICATION_TYPE": "U", "NORAD_CAT_ID": 37216, "ELEMENT_SET_NO": 999, "REV_AT_EPOCH": 81791, "BSTAR": 3.0530842e-05, "MEAN_MOTION_DOT": 1.91e-06, "MEAN_MOTION_DDOT": 0}, "tle": {"line1": "1 37216U 10060A   25353.25822622  .00000191  00000+0  30531-4 0  9999", "line2": "2 37216  97.8798 174.4826 0001383  82.9242 277.2128 14.82150805817912"}}, "geometry": {"type": "Point", "coordinates": [177.04165913117578, -13.895651221282144]}}, {"type": "Feature", "properties": {"norad_id": 37387, "name": "RESOURCESAT-2", "group": "resource", "lat": -20.747415717363644, "lon": -125.97633420176422, "alt_km": 829.5333901028635, "timestamp": "2025-12-19T20:42:59.737956+00:00", "meta": {"OBJECT_NAME": "RESOURCESAT-2", "OBJECT_ID": "2011-015A", "EPOCH": "2025-12-19T06:15:40.166784", "MEAN_MOTION": 14.2159974, "ECCENTRICITY": 0.00061245, "INCLINATION": 98.7869, "RA_OF_ASC_NODE": 56.7832, "ARG_OF_PERICENTER": 25.1446, "MEAN_ANOMALY": 335.0028, "EPHEMERIS_TYPE": 0, "CLASSIFICATION_TYPE": "U", "NORAD_CAT_ID": 37387, "ELEMENT_SET_NO": 999, "REV_AT_EPOCH": 76061, "BSTAR": 6.9615581e-05, "MEAN_MOTION_DOT": 1.08e-06, "MEAN_MOTION_DDOT": 0}, "tle": {"line1": "1 37387U 11015A   25353.26088156  .00000108  00000+0  69616-4 0  9990", "line2": "2 37387  98.7869  56.7832 0006124  25.1446 335.0028 14.21599740760616"}}, "geometry": {"type": "Point", "coordinates": [-125.97633420176422, -20.747415717363644]}}, {"type": "Feature", "properties": {"norad_id": 37781, "name": "HAIYANG-2A", "group": "resource", "lat": -52.89732572414965, "lon": 162.12481424549833, "alt_km": 976.0579087700635, "timestamp": "2025-12-19T20:42:59.737967+00:00", "meta": {"OBJECT_NAME": "HAIYANG-2A", "OBJECT_ID": "2011-043A", "EPOCH": "2025-12-19T07:23:43.138752", "MEAN_MOTION": 13.78836204, "ECCENTRICITY": 0.00016461, "INCLINATION": 99.3372, "RA_OF_ASC_NODE": 354.1417, "ARG_OF_PERICENTER": 75.0062, "MEAN_ANOMALY": 285.1272, "EPHEMERIS_TYPE": 0, "CLASSIFICATION_TYPE": "U", "NORAD_CAT_ID": 37781, "ELEMENT_SET_NO": 999, "REV_AT_EPOCH": 72189, "BSTAR": 0.00022432385, "MEAN_MOTION_DOT": 1.84e-06, "MEAN_MOTION_DDOT": 0}, "tle": {"line1": "1 37781U 11043A   25353.30813818  .00000184  00000+0  22432-3 0  9993", "line2": "2 37781  99.3372 354.1417 0001646  75.0062 285.1272 13.78836204721899"}}, "geometry": {"type": "Point", "coordinates": [162.12481424549833, -52.89732572414965]}}, {"type": "Feature", "properties": {"norad_id": 37791, "name": "RASAT", "group": "resource", "lat": 67.19496624801775, "lon": -77.27661692635732, "alt_km": 655.4161893288501, "timestamp": "2025-12-19T20:42:59.737977+00:00", "meta": {"OBJECT_NAME": "RASAT", "OBJECT_ID": "2011-044D", "EPOCH": "2025-12-19T07:26:56.775840", "MEAN_MOTION": 14.67918665, "ECCENTRICITY": 0.00216156, "INCLINATION": 98.065, "RA_OF_ASC_NODE": 82.4708, "ARG_OF_PERICENTER": 45.1906, "MEAN_ANOMALY": 26.3533, "EPHEMERIS_TYPE": 0, "CLASSIFICATION_TYPE": "U", "NORAD_CAT_ID": 37791, "ELEMENT_SET_NO": 999, "REV_AT_EPOCH": 76679, "BSTAR": 0.00010523421, "MEAN_MOTION_DOT": 5.55e-06, "MEAN_MOTION_DDOT": 0}, "tle": {"line1": "1 37791U 11044D   25353.31037935  .00000555  00000+0  10523-3 0  9994", "line2": "2 37791  98.0650  82.4708 0021615  45.1906  26.3533 14.67918665766796"}}, "geometry": {"type": "Point", "coordinates": [-77.27661692635732, 67.19496624801775]}}, {"type": "Feature", "properties": {"norad_id": 37841, "name": "SRMSAT", "group": "resource", "lat": -3.367021570954326, "lon": 55.521089373024644, "alt_km": 845.8725551804773, "timestamp": "2025-12-19T20:42:59.737988+00:00", "meta": {"OBJECT_NAME": "SRMSAT", "OBJECT_ID": "2011-058D", "EPOCH": "2025-12-18T14:54:57.461760", "MEAN_MOTION": 14.11513433, "ECCENTRICITY": 0.00119022, "INCLINATION": 19.9722, "RA_OF_ASC_NODE": 72.3527, "ARG_OF_PERICENTER": 18.2035, "MEAN_ANOMALY": 128.7708, "EPHEMERIS_TYPE": 0, "CLASSIFICATION_TYPE": "U", "NORAD_CAT_ID": 37841, "ELEMENT_SET_NO": 999, "REV_AT_EPOCH": 73227, "BSTAR": 6.9468699e-05, "MEAN_MOTION_DOT": 3.93e-06, "MEAN_MOTION_DDOT": 0}, "tle": {"line1": "1 37841U 11058D   25352.62149840  .00000393  00000+0  69469-4 0  9991", "line2": "2 37841  19.9722  72.3527 0011902  18.2035 128.7708 14.11513433732273"}}, "geometry": {"type": "Point", "coordinates": [55.521089373024644, -3.367021570954326]}}, {"type": "Feature", "properties": {"norad_id": 38012, "name": "PLEIADES 1A", "group": "resource", "lat": 26.486472826964043, "lon": 62.41076161158033, "alt_km": 696.2629720811301, "timestamp": "2025-12-19T20:42:59.737999+00:00", "meta": {"OBJECT_NAME": "PLEIADES 1A", "OBJECT_ID": "2011-076F", "EPOCH": "2025-12-19T07:46:15.085344", "MEAN_MOTION": 14.5856702, "ECCENTRICITY": 0.00011515, "INCLINATION": 98.1822, "RA_OF_ASC_NODE": 65.991, "ARG_OF_PERICENTER": 74.1513, "MEAN_ANOMALY": 2.0859, "EPHEMERIS_TYPE": 0, "CLASSIFICATION_TYPE": "U", "NORAD_CAT_ID": 38012, "ELEMENT_SET_NO": 999, "REV_AT_EPOCH": 74577, "BSTAR": 5.9776477e-05, "MEAN_MOTION_DOT": 2.32e-06, "MEAN_MOTION_DDOT": 0}, "tle": {"line1": "1 38012U 11076F   25353.32378571  .00000232  00000+0  59776-4 0  9997", "line2": "2 38012  98.1822  65.9910 0001151  74.1513   2.0859 14.58567020745777"}}, "geometry": {"type": "Point", "coordinates": [62.41076161158033, 26.486472826964043]}}, {"type": "Feature", "properties": {"norad_id": 38038, "name": "ZIYUAN 1-02C (ZY 1-02C)", "group": "resource", "lat": 50.55263963931467, "lon": -109.86656555284809, "alt_km": 755.160466618554, "timestamp": "2025-12-19T20:42:59.738010+00:00", "meta": {"OBJECT_NAME": "ZIYUAN 1-02C (ZY 1-02C)", "OBJECT_ID": "2011-079A", "EPOCH": "2025-12-19T07:09:47.846016", "MEAN_MOTION": 14.38019101, "ECCENTRICITY": 0.0007405, "INCLINATION": 98.4331, "RA_OF_ASC_NODE": 59.1917, "ARG_OF_PERICENTER": 121.2265, "MEAN_ANOMALY": 325.5726, "EPHEMERIS_TYPE": 0, "CLASSIFICATION_TYPE": "U", "NORAD_CAT_ID": 38038, "ELEMENT_SET_NO": 999, "REV_AT_EPOCH": 73335, "BSTAR": 0.00013433815, "MEAN_MOTION_DOT": 3.63e-06, "MEAN_MOTION_DDOT": 0}, "tle": {"line1": "1 38038U 11079A   25353.29847044  .00000363  00000+0  13434-3 0  9995", "line2": "2 38038  98.4331  59.1917 0007405 121.2265 325.5726 14.38019101733358"}}, "geometry": {"type": "Point", "coordinates": [-109.86656555284809, 50.55263963931467]}}, {"type": "Feature", "properties": {"norad_id": 38338, "name": "ARIRANG-3 (KOMPSAT-3)", "group": "resource", "lat": 5.010274917321084, "lon": -52.229728869178196, "alt_km": 687.717598658015, "timestamp": "2025-12-19T20:42:59.738021+00:00", "meta": {"OBJECT_NAME": "ARIRANG-3 (KOMPSAT-3)", "OBJECT_ID": "2012-025B", "EPOCH": "2025-12-19T07:33:01.911744", "MEAN_MOTION": 14.61720863, "ECCENTRICITY": 0.00049537, "INCLINATION": 98.3331, "RA_OF_ASC_NODE": 307.9538, "ARG_OF_PERICENTER": 316.0184, "MEAN_ANOMALY": 44.0622, "EPHEMERIS_TYPE": 0, "CLASSIFICATION_TYPE": "U", "NORAD_CAT_ID": 38338, "ELEMENT_SET_NO": 999, "REV_AT_EPOCH": 72506, "BSTAR": 8.8548064e-05, "MEAN_MOTION_DOT": 3.93e-06, "MEAN_MOTION_DDOT": 0}, "tle": {"line1": "1 38338U 12025B   25353.31460546  .00000393  00000+0  88548-4 0  9993", "line2": "2 38338  98.3331 307.9538 0004953 316.0184  44.0622 14.61720863725069"}}, "geometry": {"type": "Point", "coordinates": [-52.229728869178196, 5.010274917321084]}}, {"type": "Feature", "properties": {"norad_id": 38709, "name": "EXACTVIEW-1 (ADS-1B)", "group": "resource", "lat": 38.649115389116446, "lon": -70.34609860189423, "alt_km": 813.0951789711962, "timestamp": "2025-12-19T20:42:59.738031+00:00", "meta": {"OBJECT_NAME": "EXACTVIEW-1 (ADS-1B)", "OBJECT_ID": "2012-039C", "EPOCH": "2025-12-19T06:34:34.635072", "MEAN_MOTION": 14.24910488, "ECCENTRICITY": 0.00103384, "INCLINATION": 98.9638, "RA_OF_ASC_NODE": 101.8012, "ARG_OF_PERICENTER": 334.9028, "MEAN_ANOMALY": 25.1646, "EPHEMERIS_TYPE": 0, "CLASSIFICATION_TYPE": "U", "NORAD_CAT_ID": 38709, "ELEMENT_SET_NO": 999, "REV_AT_EPOCH": 69708, "BSTAR": 6.0813181e-05, "MEAN_MOTION_DOT": 9.6e-07, "MEAN_MOTION_DDOT": 0}, "tle": {"line1": "1 38709U 12039C   25353.27401198  .00000096  00000+0  60813-4 0  9998", "line2": "2 38709  98.9638 101.8012 0010338 334.9028  25.1646 14.24910488697084"}}, "geometry": {"type": "Point", "coordinates": [-70.34609860189423, 38.649115389116446]}}, {"type": "Feature", "properties": {"norad_id": 38755, "name": "SPOT 6", "group": "resource", "lat": -48.66179095632672, "lon": 67.90065793440826, "alt_km": 705.2910517852652, "timestamp": "2025-12-19T20:42:59.738042+00:00", "meta": {"OBJECT_NAME": "SPOT 6", "OBJECT_ID": "2012-047A", "EPOCH": "2025-12-19T07:46:14.578176", "MEAN_MOTION": 14.58538188, "ECCENTRICITY": 0.00012984, "INCLINATION": 98.1571, "RA_OF_ASC_NODE": 57.9875, "ARG_OF_PERICENTER": 78.607, "MEAN_ANOMALY": 281.5275, "EPHEMERIS_TYPE": 0, "CLASSIFICATION_TYPE": "U", "NORAD_CAT_ID": 38755, "ELEMENT_SET_NO": 999, "REV_AT_EPOCH": 70683, "BSTAR": 8.322895e-05, "MEAN_MOTION_DOT": 3.41e-06, "MEAN_MOTION_DDOT": 0}, "tle": {"line1": "1 38755U 12047A   25353.32377984  .00000341  00000+0  83229-4 0  9998", "line2": "2 38755  98.1571  57.9875 0001298  78.6070 281.5275 14.58538188706835"}}, "geometry": {"type": "Point", "coordinates": [67.90065793440826, -48.66179095632672]}}]}